[{"OBJECT_NAME":"STARLINK-30918","OBJECT_ID":"2023-177Q","EPOCH":"2026-03-09T22:00:01.999584","MEAN_MOTION":15.26731725,"ECCENTRICITY":0.00016358,"INCLINATION":43.0004,"RA_OF_ASC_NODE":349.2604,"ARG_OF_PERICENTER":263.222,"MEAN_ANOMALY":68.6166,"EPHEMERIS_TYPE":0,"CLASSIFICATION_TYPE":"U","NORAD_CAT_ID":58365,"ELEMENT_SET_NO":999,"REV_AT_EPOCH":578,"BSTAR":-0.00013246726,"MEAN_MOTION_DOT":-3.81e-5,"MEAN_MOTION_DDOT":0},{"OBJECT_NAME":"FLOCK 4G-1","OBJECT_ID":"2025-009BK","EPOCH":"2026-03-09T18:13:41.778912","MEAN_MOTION":15.27421081,"ECCENTRICITY":0.00031801,"INCLINATION":97.4059,"RA_OF_ASC_NODE":151.3158,"ARG_OF_PERICENTER":323.1401,"MEAN_ANOMALY":36.9619,"EPHEMERIS_TYPE":0,"CLASSIFICATION_TYPE":"U","NORAD_CAT_ID":62666,"ELEMENT_SET_NO":999,"REV_AT_EPOCH":6372,"BSTAR":0.00050653644,"MEAN_MOTION_DOT":0.00013534,"MEAN_MOTION_DDOT":0}]
